{
    "links": {
        "self": "http://www.neowsapp.com/rest/v1/neo/3741564?api_key=iIulBulltgU6a56xZRHN4H3l9WmuAYTsLGpBGhQ2"
    },
    "id": "3741564",
    "neo_reference_id": "3741564",
    "name": "(2016 CQ29)",
    "designation": "2016 CQ29",
    "nasa_jpl_url": "http://ssd.jpl.nasa.gov/sbdb.cgi?sstr=3741564",
    "absolute_magnitude_h": 25.0,
    "estimated_diameter": {
        "kilometers": {
            "estimated_diameter_min": 0.02658,
            "estimated_diameter_max": 0.0594346868
        },
        "meters": {
            "estimated_diameter_min": 26.58,
            "estimated_diameter_max": 59.4346868419
        },
        "miles": {
            "estimated_diameter_min": 0.0165160412,
            "estimated_diameter_max": 0.0369309908
        },
        "feet": {
            "estimated_diameter_min": 87.2047272,
            "estimated_diameter_max": 194.9956979785
        }
    },
    "is_potentially_hazardous_asteroid": false,
    "close_approach_data": [
        {
            "close_approach_date": "1902-02-06",
            "close_approach_date_full": "1902-Feb-06 14:01",
            "epoch_date_close_approach": -2142755940000,
            "relative_velocity": {
                "kilometers_per_second": "14.3124441491",
                "kilometers_per_hour": "51524.7989367888",
                "miles_per_hour": "32015.5063171397"
            },
            "miss_distance": {
                "astronomical": "0.1686339388",
                "lunar": "65.5986021932",
                "kilometers": "25227278.054190356",
                "miles": "15675503.7001086728"
            },
            "orbiting_body": "Earth"
        },
        {
            "close_approach_date": "2016-01-28",
            "close_approach_date_full": "2016-Jan-28 17:11",
            "epoch_date_close_approach": 1454001060000,
            "relative_velocity": {
                "kilometers_per_second": "11.6784288129",
                "kilometers_per_hour": "42042.3437264188",
                "miles_per_hour": "26123.4774115628"
            },
            "miss_distance": {
                "astronomical": "0.0500858688",
                "lunar": "19.4834029632",
                "kilometers": "7492739.289579456",
                "miles": "4655772.3035142528"
            },
            "orbiting_body": "Earth"
        }
    ],
    "orbital_data": {
        "orbit_id": "4",
        "orbit_determination_date": "2017-04-06 08:28:41",
        "first_observation_date": "2016-02-04",
        "last_observation_date": "2016-02-09",
        "data_arc_in_days": 5,
        "observations_used": 22,
        "orbit_uncertainty": "7",
        "minimum_orbit_intersection": ".0454843",
        "jupiter_tisserand_invariant": "4.002",
        "epoch_osculation": "2459000.5",
        "eccentricity": ".4246428960927403",
        "semi_major_axis": "1.731993719270423",
        "inclination": "17.21413098312928",
        "ascending_node_longitude": "129.9681110676335",
        "orbital_period": "832.5645137201224",
        "perihelion_distance": ".9965148903049937",
        "perihelion_argument": "330.979816167485",
        "aphelion_distance": "2.467472548235852",
        "perihelion_time": "2459059.585508802579",
        "mean_anomaly": "334.4514895621905",
        "mean_motion": ".4323989241283214",
        "equinox": "J2000",
        "orbit_class": {
            "orbit_class_type": "APO",
            "orbit_class_description": "Near-Earth asteroid orbits which cross the Earth’s orbit similar to that of 1862 Apollo",
            "orbit_class_range": "a (semi-major axis) > 1.0 AU; q (perihelion) < 1.017 AU"
        }
    },
    "is_sentry_object": false
}